ORBCOMM FM114           
1 41179U 15081A   25109.28117866  .00001183  00000+0  29093-3 0  9991
2 41179  47.0020 205.0548 0001086  82.7066 277.3943 14.58116502495876
ORBCOMM FM119           
1 41180U 15081B   25109.33492424  .00001108  00000+0  27514-3 0  9998
2 41180  46.9988 114.0928 0000776 207.4890 152.5955 14.58030810497131
ORBCOMM FM105           
1 41181U 15081C   25109.38783056  .00000494  00000+0  18458-3 0  9992
2 41181  46.9999 113.0874 0001141  22.5135 337.5795 14.45161060492240
ORBCOMM FM110           
1 41182U 15081D   25109.60089139  .00001728  00000+0  40926-3 0  9995
2 41182  47.0002 202.9270 0002884 256.7759 103.2805 14.57983043495793
ORBCOMM FM118           
1 41183U 15081E   25109.72244026  .00001604  00000+0  38159-3 0  9995
2 41183  47.0028 202.8096 0003463 237.7712 122.2838 14.58083709495911
ORBCOMM FM112           
1 41184U 15081F   25109.44864181  .00001119  00000+0  27788-3 0  9992
2 41184  46.9976 112.7183 0000335  68.1378 291.9543 14.57983027497096
